{
  "type": "FeatureCollection",
  "features": [
    {
      "type": "Feature",
      "properties": {
        "norad_id": 28051,
        "name": "IRS-P6 (RESOURCESAT-1)",
        "group": "resource",
        "lat": -24.733357541323542,
        "lon": -153.61100631624782,
        "alt_km": 738.7561447704657,
        "timestamp": "2025-12-15T22:44:28.579780+00:00",
        "meta_object_name": "IRS-P6 (RESOURCESAT-1)",
        "meta_object_id": "2003-046A",
        "meta_epoch": "2025-12-15T08:42:03.375648",
        "meta_mean_motion": 14.3607647,
        "meta_eccentricity": 0.00642944,
        "meta_inclination": 98.2182,
        "meta_ra_of_asc_node": 29.6483,
        "meta_arg_of_pericenter": 172.8066,
        "meta_mean_anomaly": 248.985,
        "meta_ephemeris_type": 0,
        "meta_classification_type": "U",
        "meta_norad_cat_id": 28051,
        "meta_element_set_no": 999,
        "meta_rev_at_epoch": 15414,
        "meta_bstar": 9.1832264e-05,
        "meta_mean_motion_dot": 2.33e-06,
        "meta_mean_motion_ddot": 0,
        "tle_line1": "1 28051U 03046A   25349.36253907  .00000233  00000+0  91832-4 0  9991",
        "tle_line2": "2 28051  98.2182  29.6483 0064294 172.8066 248.9850 14.36076470154144"
      },
      "geometry": {
        "type": "Point",
        "coordinates": [
          -153.61100631624782,
          -24.733357541323542
        ]
      }
    },
    {
      "type": "Feature",
      "properties": {
        "norad_id": 28220,
        "name": "SHIYAN-1 (SY-1)",
        "group": "resource",
        "lat": 59.31468600284563,
        "lon": 38.153704639569106,
        "alt_km": 476.48579752785645,
        "timestamp": "2025-12-15T22:44:28.579792+00:00",
        "meta_object_name": "SHIYAN-1 (SY-1)",
        "meta_object_id": "2004-012A",
        "meta_epoch": "2025-12-15T03:37:16.349952",
        "meta_mean_motion": 15.28214366,
        "meta_eccentricity": 0.00055202,
        "meta_inclination": 97.8937,
        "meta_ra_of_asc_node": 50.8316,
        "meta_arg_of_pericenter": 316.2809,
        "meta_mean_anomaly": 43.7992,
        "meta_ephemeris_type": 0,
        "meta_classification_type": "U",
        "meta_norad_cat_id": 28220,
        "meta_element_set_no": 999,
        "meta_rev_at_epoch": 18293,
        "meta_bstar": 0.00032272129,
        "meta_mean_motion_dot": 8.796e-05,
        "meta_mean_motion_ddot": 0,
        "tle_line1": "1 28220U 04012A   25349.15088368  .00008796  00000+0  32272-3 0  9991",
        "tle_line2": "2 28220  97.8937  50.8316 0005520 316.2809  43.7992 15.28214366182938"
      },
      "geometry": {
        "type": "Point",
        "coordinates": [
          38.153704639569106,
          59.31468600284563
        ]
      }
    },
    {
      "type": "Feature",
      "properties": {
        "norad_id": 28376,
        "name": "AURA",
        "group": "resource",
        "lat": 37.65924375775738,
        "lon": -66.29465997401559,
        "alt_km": 686.8039606952952,
        "timestamp": "2025-12-15T22:44:28.579804+00:00",
        "meta_object_name": "AURA",
        "meta_object_id": "2004-026A",
        "meta_epoch": "2025-12-15T07:46:25.337568",
        "meta_mean_motion": 14.609529,
        "meta_eccentricity": 0.00012898,
        "meta_inclination": 98.3187,
        "meta_ra_of_asc_node": 299.5624,
        "meta_arg_of_pericenter": 93.73,
        "meta_mean_anomaly": 266.4047,
        "meta_ephemeris_type": 0,
        "meta_classification_type": "U",
        "meta_norad_cat_id": 28376,
        "meta_element_set_no": 999,
        "meta_rev_at_epoch": 13936,
        "meta_bstar": 0.00024192587,
        "meta_mean_motion_dot": 1.137e-05,
        "meta_mean_motion_ddot": 0,
        "tle_line1": "1 28376U 04026A   25349.32390437  .00001137  00000+0  24193-3 0  9995",
        "tle_line2": "2 28376  98.3187 299.5624 0001289  93.7300 266.4047 14.60952900139360"
      },
      "geometry": {
        "type": "Point",
        "coordinates": [
          -66.29465997401559,
          37.65924375775738
        ]
      }
    },
    {
      "type": "Feature",
      "properties": {
        "norad_id": 28649,
        "name": "IRS-P5 (CARTOSAT-1)",
        "group": "resource",
        "lat": -50.20735013905913,
        "lon": -172.94283083862797,
        "alt_km": 604.3344043942561,
        "timestamp": "2025-12-15T22:44:28.579816+00:00",
        "meta_object_name": "IRS-P5 (CARTOSAT-1)",
        "meta_object_id": "2005-017A",
        "meta_epoch": "2025-12-15T02:22:25.306464",
        "meta_mean_motion": 14.90414506,
        "meta_eccentricity": 0.00011041,
        "meta_inclination": 97.5498,
        "meta_ra_of_asc_node": 15.408,
        "meta_arg_of_pericenter": 47.5885,
        "meta_mean_anomaly": 312.5427,
        "meta_ephemeris_type": 0,
        "meta_classification_type": "U",
        "meta_norad_cat_id": 28649,
        "meta_element_set_no": 999,
        "meta_rev_at_epoch": 11639,
        "meta_bstar": 0.00018935037,
        "meta_mean_motion_dot": 1.792e-05,
        "meta_mean_motion_ddot": 0,
        "tle_line1": "1 28649U 05017A   25349.09890401  .00001792  00000+0  18935-3 0  9993",
        "tle_line2": "2 28649  97.5498  15.4080 0001104  47.5885 312.5427 14.90414506116392"
      },
      "geometry": {
        "type": "Point",
        "coordinates": [
          -172.94283083862797,
          -50.20735013905913
        ]
      }
    },
    {
      "type": "Feature",
      "properties": {
        "norad_id": 28893,
        "name": "SINAH 1",
        "group": "resource",
        "lat": -77.50980969869747,
        "lon": 159.49533477945386,
        "alt_km": 697.3535016301548,
        "timestamp": "2025-12-15T22:44:28.579827+00:00",
        "meta_object_name": "SINAH 1",
        "meta_object_id": "2005-043D",
        "meta_epoch": "2025-12-15T08:20:48.413184",
        "meta_mean_motion": 14.63965461,
        "meta_eccentricity": 0.00154586,
        "meta_inclination": 98.2604,
        "meta_ra_of_asc_node": 117.912,
        "meta_arg_of_pericenter": 129.3264,
        "meta_mean_anomaly": 230.9311,
        "meta_ephemeris_type": 0,
        "meta_classification_type": "U",
        "meta_norad_cat_id": 28893,
        "meta_element_set_no": 999,
        "meta_rev_at_epoch": 7362,
        "meta_bstar": 0.00010046813,
        "meta_mean_motion_dot": 4.78e-06,
        "meta_mean_motion_ddot": 0,
        "tle_line1": "1 28893U 05043D   25349.34778256  .00000478  00000+0  10047-3 0  9990",
        "tle_line2": "2 28893  98.2604 117.9120 0015458 129.3264 230.9311 14.63965461 73624"
      },
      "geometry": {
        "type": "Point",
        "coordinates": [
          159.49533477945386,
          -77.50980969869747
        ]
      }
    },
    {
      "type": "Feature",
      "properties": {
        "norad_id": 29079,
        "name": "EROS B",
        "group": "resource",
        "lat": 56.74329943002934,
        "lon": 95.33000960052686,
        "alt_km": 356.2046670133059,
        "timestamp": "2025-12-15T22:44:28.579839+00:00",
        "meta_object_name": "EROS B",
        "meta_object_id": "2006-014A",
        "meta_epoch": "2025-12-15T07:11:33.396576",
        "meta_mean_motion": 15.69120309,
        "meta_eccentricity": 0.00026695,
        "meta_inclination": 97.346,
        "meta_ra_of_asc_node": 105.9962,
        "meta_arg_of_pericenter": 310.4161,
        "meta_mean_anomaly": 49.6868,
        "meta_ephemeris_type": 0,
        "meta_classification_type": "U",
        "meta_norad_cat_id": 29079,
        "meta_element_set_no": 999,
        "meta_rev_at_epoch": 9120,
        "meta_bstar": 0.0010801178,
        "meta_mean_motion_dot": 0.00126575,
        "meta_mean_motion_ddot": 0,
        "tle_line1": "1 29079U 06014A   25349.29969209  .00126575  00000+0  10801-2 0  9994",
        "tle_line2": "2 29079  97.3460 105.9962 0002669 310.4161  49.6868 15.69120309 91208"
      },
      "geometry": {
        "type": "Point",
        "coordinates": [
          95.33000960052686,
          56.74329943002934
        ]
      }
    },
    {
      "type": "Feature",
      "properties": {
        "norad_id": 29228,
        "name": "RESURS-DK 1",
        "group": "resource",
        "lat": 41.16449229521036,
        "lon": 112.18821224596172,
        "alt_km": 529.8018510948759,
        "timestamp": "2025-12-15T22:44:28.579849+00:00",
        "meta_object_name": "RESURS-DK 1",
        "meta_object_id": "2006-021A",
        "meta_epoch": "2025-12-15T08:15:25.086240",
        "meta_mean_motion": 15.12177088,
        "meta_eccentricity": 0.00070005,
        "meta_inclination": 69.9335,
        "meta_ra_of_asc_node": 95.1081,
        "meta_arg_of_pericenter": 257.1339,
        "meta_mean_anomaly": 102.9045,
        "meta_ephemeris_type": 0,
        "meta_classification_type": "U",
        "meta_norad_cat_id": 29228,
        "meta_element_set_no": 999,
        "meta_rev_at_epoch": 7477,
        "meta_bstar": 0.00013453081,
        "meta_mean_motion_dot": 2.22e-05,
        "meta_mean_motion_ddot": 0,
        "tle_line1": "1 29228U 06021A   25349.34404035  .00002220  00000+0  13453-3 0  9992",
        "tle_line2": "2 29228  69.9335  95.1081 0007000 257.1339 102.9045 15.12177088 74777"
      },
      "geometry": {
        "type": "Point",
        "coordinates": [
          112.18821224596172,
          41.16449229521036
        ]
      }
    }
  ]
}